KUZGTU 1 (RS47S)        
1 57217U 23091AV  26155.21298096  .00013972  00000+0  48912-3 0  9991
2 57217  97.5065 219.5637 0012171 138.0553 222.1622 15.29547520162394
SONATE-2                
1 59112U 24043Q   26154.97364330  .00039146  00000+0  52779-3 0  9999
2 59112  97.5529 304.5700 0006326 241.9322 118.1294 15.57700323125834
MESAT1                  
1 60209U 24125G   26155.10557233  .00060503  00000+0  69656-3 0  9994
2 60209  97.2302  12.3026 0008331 256.8066 103.2263 15.61758967107521
OOV-CUBE (TUBSAT-30)    
1 60240U 24128F   26154.88050213  .00003041  00000+0  23717-3 0  9994
2 60240  61.9958 271.9701 0046281 130.8013 229.7107 15.02709877104117
COLIBRI-S (RS67S)       
1 61746U 24199M   26155.25822654  .00025478  00000+0  50221-3 0  9990
2 61746  97.3006  28.9987 0007149 338.6647  21.4304 15.47164785135418
HORS 3 (RS81S)          
1 61753U 24199U   26155.27970713  .00038704  00000+0  59687-3 0  9991
2 61753  97.2991  30.8710 0005010 348.9816  11.1327 15.54050610135556
HORS 4 (RS82S)          
1 61754U 24199V   26155.27795850  .00053577  00000+0  70111-3 0  9999
2 61754  97.2937  31.9904 0003789 341.4344  18.6773 15.58446152135639
ARCTICSAT 1 (RS74S)     
1 61762U 24199AD  26155.04359446  .00647060  19277-3  12212-2 0  9993
2 61762  97.2861  38.2010 0005603 197.5172 162.5915 16.00815121136012
SIT-2086                
1 61764U 24199AF  26155.30672423  .00039352  00000+0  64943-3 0  9995
2 61764  97.2949  31.4197 0004984 322.8107  37.2799 15.52161728132437
HYPERVIEW 1G (RS66S)    
1 61772U 24199AP  26155.28543168  .00132641  00000+0  98219-3 0  9992
2 61772  97.2895  34.3835 0002343 324.1028  36.0078 15.72518645132647
ALTAIR (RS65S)          
1 61779U 24199AW  26155.28566641  .00011256  00000+0  31485-3 0  9990
2 61779  97.3039  24.7230 0012500   1.3442 358.7834 15.36751515135133
ASRTU-1 (AO-123)        
1 61781U 24199AY  26155.26251198  .00008936  00000+0  26072-3 0  9996
2 61781  97.3011  24.0505 0013740   3.1440 356.9888 15.35480458131947
SAMSAT-IONOSPHERE (RS7*)
1 61784U 24199BB  26155.27045632  .00050265  00000+0  70806-3 0  9990
2 61784  97.2959  30.8641 0006894 341.8911  18.2098 15.56459822135559
RTU MIREA 1 (RS51S)     
1 61785U 24199BC  26155.25824095  .00063047  00000+0  78722-3 0  9994
2 61785  97.2949  31.6191 0006301 337.3734  22.7244 15.59639875132454
TEVEL2-4                
1 63213U 25052D   26153.24759932  .00019833  00000+0  60334-3 0  9999
2 63213  97.3927  49.6197 0004090 133.0862 227.0724 15.34050425 67822
TEVEL2-5                
1 63214U 25052E   26154.63639036  .00019992  00000+0  61020-3 0  9995
2 63214  97.3916  50.9614 0004039 130.1667 229.9930 15.33944349 68034
TEVEL2-6                
1 63215U 25052F   26154.64839894  .00020133  00000+0  61519-3 0  9993
2 63215  97.3918  50.9581 0004181 130.1242 230.0368 15.33906822 68039
TEVEL2-1                
1 63217U 25052H   26153.69393788  .00019888  00000+0  61840-3 0  9998
2 63217  97.3886  49.6443 0003899 141.0246 219.1278 15.33355434 67873
TEVEL2-3                
1 63218U 25052J   26154.21113612  .00019661  00000+0  61001-3 0  9992
2 63218  97.3892  50.1814 0003877 141.5958 218.5561 15.33427572 67951
TEVEL2-2                
1 63219U 25052K   26154.60793555  .00020300  00000+0  63028-3 0  9999
2 63219  97.3889  50.5598 0003812 141.3409 218.8107 15.33398099 68017
TEVEL2-9                
1 63237U 25052AD  26154.24128318  .00018105  00000+0  59759-3 0  9994
2 63237  97.3950  49.5986 0006417 171.9085 188.2261 15.31447810 67898
TEVEL2-7                
1 63238U 25052AE  26154.60632626  .00017541  00000+0  58397-3 0  9997
2 63238  97.3955  49.8841 0006417 171.2563 188.8791 15.31176236 67942
TEVEL2-8                
1 63239U 25052AF  26154.94119385  .00017135  00000+0  57066-3 0  9998
2 63239  97.3952  50.1954 0006473 170.8239 189.3121 15.31169698 67999
INNOSAT 16 (RS92S7)     
1 64878U 25155C   26155.27579037  .00006554  00000+0  26279-3 0  9998
2 64878  97.4562 122.4469 0009071 223.4854 136.5669 15.25313992 78709
GEOSCAN 6 (RS92S6)      
1 64879U 25155D   26155.29770789  .00011133  00000+0  38683-3 0  9999
2 64879  97.4555 123.8029 0006614 208.2666 151.8216 15.29897928 78798
GEOSCAN 1 (RS92S1)      
1 64880U 25155E   26155.23970553  .00012326  00000+0  42044-3 0  9997
2 64880  97.4552 123.8816 0006509 208.2464 151.8425 15.30473358 78791
239ALFEROV (RS61S)      
1 64881U 25155F   26155.29279181  .00014937  00000+0  47663-3 0  9995
2 64881  97.4554 124.4538 0006130 204.3562 155.7391 15.32580850 78836
GEOSCAN 2 (RS92S2)      
1 64890U 25155Q   26155.23568489  .00011934  00000+0  40377-3 0  9990
2 64890  97.4551 124.0250 0006394 191.9436 168.1654 15.30745000 78808
GEOSCAN 5 (RS92S5)      
1 64891U 25155R   26155.28449314  .00016106  00000+0  50871-3 0  9997
2 64891  97.4545 124.5780 0004819 207.6493 152.4493 15.32897809 78841
GEOSCAN 4 (RS92S4)      
1 64892U 25155S   26155.26994906  .00016730  00000+0  52584-3 0  9994
2 64892  97.4549 124.6081 0004872 208.6799 151.4176 15.33045311 78841
